     3.00           N                   E                   RINEX VERSION / TYPE
BRD_USR             ESA                 20190108 121600  UTCPGM / RUN BY / DATE
 GAL   5.0750E+01  7.0312E-02 -4.8523E-03  0.0000E+00       IONOSPHERIC CORR
GAUT  0.0000000000E+00 0.000000000E+00 172800 2035 GSTB   0 TIME SYSTEM CORR
GPGA -3.7834979594E-10 1.065814104E-14 172800 2035 GSTB   0 TIME SYSTEM CORR
                                                            END OF HEADER
E18 2019 01 08 10 30 00 5.621960561257E-03-2.845013113983E-11 0.000000000000E+00
     9.500000000000E+01 1.978125000000E+01 6.463840673481E-09 1.254877932874E-01
     6.053596735001E-07 1.663964005420E-01 6.528571248055E-06 5.289336746216E+03
     2.106000000000E+05-3.335997462273E-06-1.445682288596E+00-1.259148120880E-06
     8.817484877238E-01 2.370625000000E+02 1.439396028668E+00-1.096545675529E-08
    -3.607293115380E-11 5.210000000000E+02 2.035000000000E+03 0.000000000000E+00
     3.120000000000E+00 4.550000000000E+02 1.420266926289E-08 1.583248376846E-08
     2.117350000000E+05 0.000000000000E+00 0.000000000000E+00 0.000000000000E+00
E21 2019 01 08 09 20 00-5.133887752891E-04-1.904254531837E-12 0.000000000000E+00
     8.800000000000E+01 6.156250000000E+01 2.329025584693E-09-1.361675923656E+00
     2.892687916756E-06 4.815927240998E-05 1.243501901627E-05 5.440633968353E+03
     2.064000000000E+05-7.823109626770E-08-2.949899714112E+00-6.891787052155E-08
     9.898675359561E-01 8.700000000000E+01-2.902453387977E-01-5.040924260444E-09
    -4.171602335410E-10 5.210000000000E+02 2.035000000000E+03 0.000000000000E+00
     3.120000000000E+00 0.000000000000E+00-2.328306436539E-09-2.793967723846E-09
     2.117350000000E+05 0.000000000000E+00 0.000000000000E+00 0.000000000000E+00
E02 2019 01 08 10 30 00 4.246097523719E-05 1.591615728103E-12 0.000000000000E+00
     9.500000000000E+01 8.762500000000E+01 2.303667385565E-09 1.469769187958E+00
     4.135072231293E-06 2.704744692892E-04 1.183710992336E-05 5.440623210907E+03
     2.106000000000E+05-1.303851604462E-08-2.947347126872E+00-2.793967723846E-08
     9.903104812180E-01 1.012187500000E+02-2.627283588221E-01-4.998065332340E-09
    -3.850160374634E-10 2.580000000000E+02 2.035000000000E+03 0.000000000000E+00
     3.120000000000E+00 0.000000000000E+00-6.286427378654E-09 0.000000000000E+00
     2.117500000000E+05 0.000000000000E+00 0.000000000000E+00 0.000000000000E+00
E18 2019 01 08 10 30 00 5.621958407573E-03-2.846434199455E-11 0.000000000000E+00
     9.500000000000E+01 1.978125000000E+01 6.463840673481E-09 1.254877932874E-01
     6.053596735001E-07 1.663964005420E-01 6.528571248055E-06 5.289336746216E+03
     2.106000000000E+05-3.335997462273E-06-1.445682288596E+00-1.259148120880E-06
     8.817484877238E-01 2.370625000000E+02 1.439396028668E+00-1.096545675529E-08
    -3.607293115380E-11 2.580000000000E+02 2.035000000000E+03 0.000000000000E+00
     3.120000000000E+00 5.600000000000E+01 1.420266926289E-08 0.000000000000E+00
     2.117500000000E+05 0.000000000000E+00 0.000000000000E+00 0.000000000000E+00
E21 2019 01 08 09 20 00-5.133887170814E-04-1.918465386552E-12 0.000000000000E+00
     8.800000000000E+01 6.156250000000E+01 2.329025584693E-09-1.361675923656E+00
     2.892687916756E-06 4.815927240998E-05 1.243501901627E-05 5.440633968353E+03
     2.064000000000E+05-7.823109626770E-08-2.949899714112E+00-6.891787052155E-08
     9.898675359561E-01 8.700000000000E+01-2.902453387977E-01-5.040924260444E-09
    -4.171602335410E-10 2.580000000000E+02 2.035000000000E+03 0.000000000000E+00
     3.120000000000E+00 0.000000000000E+00-2.328306436539E-09 0.000000000000E+00
     2.117500000000E+05 0.000000000000E+00 0.000000000000E+00 0.000000000000E+00
E27 2019 01 08 10 30 00 5.539485719055E-04-7.716494110355E-12 0.000000000000E+00
     9.500000000000E+01 7.915625000000E+01 2.431529854407E-09 5.670027674726E-01
     3.688037395477E-06 2.059113467112E-04 1.268461346626E-05 5.440629318237E+03
     2.106000000000E+05-6.891787052155E-08-2.949904983543E+00-8.195638656616E-08
     9.898375578388E-01 7.993750000000E+01-9.113909004150E-01-5.143071372424E-09
    -4.025167664390E-10 5.210000000000E+02 2.035000000000E+03 0.000000000000E+00
     3.120000000000E+00 0.000000000000E+00-2.793967723846E-09-3.259629011154E-09
     2.117950000000E+05 0.000000000000E+00 0.000000000000E+00 0.000000000000E+00
E27 2019 01 08 10 30 00 5.539486301132E-04-7.716494110355E-12 0.000000000000E+00
     9.500000000000E+01 7.915625000000E+01 2.431529854407E-09 5.670027674726E-01
     3.688037395477E-06 2.059113467112E-04 1.268461346626E-05 5.440629318237E+03
     2.106000000000E+05-6.891787052155E-08-2.949904983543E+00-8.195638656616E-08
     9.898375578388E-01 7.993750000000E+01-9.113909004150E-01-5.143071372424E-09
    -4.025167664390E-10 2.580000000000E+02 2.035000000000E+03 0.000000000000E+00
     3.120000000000E+00 0.000000000000E+00-2.793967723846E-09 0.000000000000E+00
     2.118000000000E+05 0.000000000000E+00 0.000000000000E+00 0.000000000000E+00
E02 2019 01 08 10 40 00 4.246103344485E-05 1.591615728103E-12 0.000000000000E+00
     9.600000000000E+01 8.778125000000E+01 2.312953486654E-09 1.544810827480E+00
     4.140660166740E-06 2.705317456275E-04 1.179240643978E-05 5.440622837067E+03
     2.112000000000E+05-1.303851604462E-08-2.947350105374E+00-3.166496753693E-08
     9.903102603174E-01 1.026562500000E+02-2.633856362118E-01-4.998065332340E-09
    -3.882304570711E-10 5.210000000000E+02 2.035000000000E+03 0.000000000000E+00
     3.120000000000E+00 0.000000000000E+00-6.286427378654E-09-7.683411240578E-09
     2.118850000000E+05 0.000000000000E+00 0.000000000000E+00 0.000000000000E+00
E03 2019 01 08 10 40 00-1.198431127705E-04-4.263256414561E-12 0.000000000000E+00
     9.600000000000E+01 3.484375000000E+01 3.484430854817E-09 2.751627326906E+00
     1.527369022369E-06 2.635334385559E-04 7.737427949905E-06 5.440613336563E+03
     2.112000000000E+05-4.097819328308E-08 1.243390485690E+00 1.862645149231E-09
     9.522975672675E-01 1.668437500000E+02 6.204922516615E-01-5.642020727096E-09
     5.218074496605E-10 5.210000000000E+02 2.035000000000E+03 0.000000000000E+00
     3.120000000000E+00 0.000000000000E+00-1.862645149231E-09-2.095475792885E-09
     2.118850000000E+05 0.000000000000E+00 0.000000000000E+00 0.000000000000E+00
E05 2019 01 08 10 40 00 1.286501064897E-04-6.565414878423E-12 0.000000000000E+00
     9.600000000000E+01 4.043750000000E+01 3.526218309718E-09 2.561730476323E+00
     1.946464180946E-06 1.352176768705E-04 7.670372724533E-06 5.440614374161E+03
     2.112000000000E+05 1.117587089539E-08 1.243373591912E+00 5.587935447693E-09
     9.523106121081E-01 1.707500000000E+02 1.597867592205E+00-5.675236396376E-09
     5.289506043444E-10 5.210000000000E+02 2.035000000000E+03 0.000000000000E+00
     3.120000000000E+00 0.000000000000E+00-1.396983861923E-09-1.396983861923E-09
     2.118850000000E+05 0.000000000000E+00 0.000000000000E+00 0.000000000000E+00
E08 2019 01 08 10 40 00 6.427534390241E-03-7.460698725481E-12 0.000000000000E+00
     9.600000000000E+01 3.009375000000E+01 3.355496912772E-09 2.125302005394E+00
     1.307576894760E-06 2.180001465604E-04 8.432194590569E-06 5.440610403061E+03
     2.112000000000E+05 0.000000000000E+00 1.234760585649E+00 5.029141902924E-08
     9.582855952529E-01 1.565312500000E+02 4.630282085834E-01-5.506657945835E-09
     5.578803808143E-10 5.210000000000E+02 2.035000000000E+03 0.000000000000E+00
     3.120000000000E+00 0.000000000000E+00-8.614733815193E-09-1.001171767712E-08
     2.118850000000E+05 0.000000000000E+00 0.000000000000E+00 0.000000000000E+00
E09 2019 01 08 10 40 00 6.564471463207E-03-1.129762949859E-11 0.000000000000E+00
     9.600000000000E+01 3.568750000000E+01 3.381212269634E-09-1.429507701625E+00
     1.681968569756E-06 2.439598320052E-04 7.979571819305E-06 5.440615301132E+03
     2.112000000000E+05-3.166496753693E-08 1.234757019055E+00 2.607703208923E-08
     9.583151666790E-01 1.691875000000E+02 8.959196756792E-02-5.590232855637E-09
     5.375223899651E-10 5.210000000000E+02 2.035000000000E+03 0.000000000000E+00
     3.120000000000E+00 0.000000000000E+00-3.259629011154E-09-3.958120942116E-09
     2.118850000000E+05 0.000000000000E+00 0.000000000000E+00 0.000000000000E+00
E11 2019 01 08 10 40 00 5.719316017348E-03 1.023181539495E-12 0.000000000000E+00
     9.600000000000E+01-9.428125000000E+01 3.057984520187E-09 1.117688601657E+00
    -4.502013325691E-06 2.488656900823E-04 1.396983861923E-07 5.440606176376E+03
     2.112000000000E+05 1.117587089539E-08-8.618119045079E-01-5.587935447693E-08
     9.819129130484E-01 3.500937500000E+02-3.622400666728E-01-5.851672317069E-09
    -1.682212928064E-10 5.210000000000E+02 2.035000000000E+03 0.000000000000E+00
     3.120000000000E+00 0.000000000000E+00-1.839362084866E-08-2.002343535423E-08
     2.118850000000E+05 0.000000000000E+00 0.000000000000E+00 0.000000000000E+00
E18 2019 01 08 10 40 00 5.621943215374E-03-2.845013113983E-11 0.000000000000E+00
     9.600000000000E+01 1.759375000000E+01 6.191329322289E-09 2.064395794257E-01
     1.564621925354E-07 1.663969353540E-01 6.394460797310E-06 5.289338905334E+03
     2.112000000000E+05-3.512948751450E-06-1.445694107511E+00-2.155080437660E-06
     8.817486866806E-01 2.398125000000E+02 1.439401361004E+00-1.032435862241E-08
     3.178703834345E-10 5.210000000000E+02 2.035000000000E+03 0.000000000000E+00
     3.120000000000E+00 4.550000000000E+02 1.420266926289E-08 1.583248376846E-08
     2.118850000000E+05 0.000000000000E+00 0.000000000000E+00 0.000000000000E+00
